"Achilles:588 Achilles:1906 TG" "Sol"
{
	Class	"asteroid"
	Mesh	"asteroid.cmod"
	Texture	"darkasteroid.jpg"
	Radius	67.735
	Visible	true
	Clickable	true
	EllipticalOrbit
	{
		Epoch	2457000.5  # 2014 Dec 09+
		Period	11.867840956566
		SemiMajorAxis	5.202862439479
		Eccentricity	0.147661803422
		Inclination	10.315228901499
		AscendingNode	316.579720740196
		ArgOfPericenter	133.423616224521
		MeanAnomaly	105.500594025022
	}
	UniformRotation
	{
		Period	7.306
	}
	Albedo	0.0328
	InfoURL	"http://ssd.jpl.nasa.gov/sbdb.cgi?sstr=588"
}

"Patroclus-Menoetius" "Sol"  # Barycenter
{
	Class	"asteroid"
	Mesh	""
	Radius	294
	Visible	true
	Clickable	true
	EllipticalOrbit
	{
		Epoch	2457000.5  # 2014 Dec 09++
		Period	11.91826662694
		SemiMajorAxis	5.217589767847
		Eccentricity	0.139284878993
		Inclination	22.049245950923
		AscendingNode	44.363959282959
		ArgOfPericenter	308.482775981466
		MeanAnomaly	70.608674103869
	}
	Albedo	0
	InfoURL	"http://www.johnstonsarchive.net/astro/astmoons/am-00617.html"
}

"Patroclus:617 Patroclus:1906 VY:1941 XC:1962 NB" "Sol/Patroclus-Menoetius"
{
	Class	"asteroid"
	Mesh	"roughsphere.cmod"
	Texture	"patroclus.dds"
	Radius	53
	Visible	true
	Clickable	true
	EllipticalOrbit
	{
		Period	4.283
		SemiMajorAxis	300
		Eccentricity	0.02
		ArgOfPericenter	200
	}
	UniformRotation
	{
		Period	103.02
	}
	Albedo	0.047
	InfoURL	"http://ssd.jpl.nasa.gov/sbdb.cgi?sstr=617"
}

"Menoetius:617 Patroclus I:Patroclus I:2001 617 I" "Sol/Patroclus-Menoetius"
{
	Class	"asteroid"
	Mesh	"roughsphere.cmod"
	Orientation	[ 180 1 0 0 ]
	Texture	"menoetius.dds"
	Radius	49
	Visible	true
	Clickable	true
	EllipticalOrbit
	{
		Period	4.283
		SemiMajorAxis	380
		Eccentricity	0.02
		ArgOfPericenter	20
	}
	UniformRotation
	{
		Period	103.02
	}
	Albedo	0.047
	InfoURL	"http://www.johnstonsarchive.net/astro/astmoons/am-00617.html"
}

"Hektor:624 Hektor:1907 XM:1948 VD" "Sol"
{
	Class	"asteroid"
	Mesh	"hektor.cmod"
	Orientation	[ 90 0 1 0 ]
	Texture	"darkasteroid.jpg"
	Color	[ 1.00 0.885 0.782 ]
	BlendTexture	true
	Radius	208
	Visible	true
	Clickable	true
	EllipticalOrbit
	{
		Epoch	2457000.5  # 2014 Dec 09++
		Period	12.028762030161
		SemiMajorAxis	5.249788661969
		Eccentricity	0.024404703413
		Inclination	18.169013725832
		AscendingNode	342.809042997472
		ArgOfPericenter	182.146707721216
		MeanAnomaly	40.849551772658
	}
	UniformRotation
	{
		Period	6.924
	}
	Albedo	0.025
	InfoURL	"http://ssd.jpl.nasa.gov/sbdb.cgi?sstr=624"
}

"Skamandrios:624 Hektor I:Hektor I:2006 624 I" "Sol/624 Hektor"
{
	Class	"moon"
	Mesh	"asteroid.cmod"
	Texture	"darkasteroid.jpg"
	Color	[ 1.00 0.885 0.782 ]
	BlendTexture	true
	Radius	6
	Visible	true
	Clickable	true
	EllipticalOrbit
	{
		Period	2.965079
		SemiMajorAxis	957.5
		Eccentricity	0.31
	}
	Albedo	0.025
	InfoURL	"http://www.johnstonsarchive.net/astro/astmoons/am-00624.html"
}



"Interamnia:704 Interamnia:1910 KU:1952 MW" "Sol"
{
	Class	"asteroid"
	Mesh	"roughsphere.cmod"
	Texture	"darkasteroid.jpg"
	SemiAxes	[ 175.15 151.8 151.8 ]
	Visible	true
	Clickable	true
	EllipticalOrbit
	{
		Epoch	2457000.5  # 2014 Dec 09+
		Period	5.34592027982
		SemiMajorAxis	3.057333750327
		Eccentricity	0.154129777663
		Inclination	17.309122497215
		AscendingNode	280.303711958403
		ArgOfPericenter	95.350965380575
		MeanAnomaly	165.286412928062
	}
	UniformRotation
	{
		Period	8.727
	}
	Albedo	0.0742
	InfoURL	"http://ssd.jpl.nasa.gov/sbdb.cgi?sstr=704"
}

"Gaspra:951 Gaspra:1916 S45:1955 MG1:A913 YA" "Sol"
{
	Class	"asteroid"
	Mesh	"gaspra.cmod"
	MeshCenter	[ 1.540 -0.064 -0.118 ]
	Texture	"gaspra.jpg"
	Radius	9.1
	Visible	true
	Clickable	true
	EllipticalOrbit
	{
		Epoch	2448558.5  # 1991 Oct 29+
		Period	3.2846479784353
		SemiMajorAxis	2.209634387508869
		Eccentricity	0.1738754270123919
		Inclination	4.097577988971894
		AscendingNode	253.4454444531708
		ArgOfPericenter	129.0460702731027
		MeanAnomaly	280.6191587386546
	}
	UniformRotation
	{
		Period	7.042073
		Inclination	69.28
		AscendingNode	109.59
		MeridianAngle	58.865
	}
	Albedo	0.22
	InfoURL	"https://en.wikipedia.org/wiki/951_Gaspra"
}

AltSurface "Limit of knowledge" "Sol/951 Gaspra"
{
	Texture	"gaspramosaic.jpg"
	Color	[ 0.85 0.71 0.56 ]
	BlendTexture	true
}

AltSurface "Geology" "Sol/951 Gaspra"
{
	Texture	"gaspra-geol.jpg"
}


"Gunnie:961 Gunnie:1921 KM:1930 XT:1968 HO" "Sol"
{
	Class	"asteroid"
	Mesh	"asteroid.cmod"
	Texture	"darkasteroid.jpg"
	Radius	18.91
	Visible	true
	Clickable	true
	EllipticalOrbit
	{
		Epoch	2457000.5  # 2014 Dec 09+
		Period	4.417681554898
		SemiMajorAxis	2.692304247826
		Eccentricity	0.092581675338
		Inclination	10.987253982717
		AscendingNode	26.683050333583
		ArgOfPericenter	284.174011994939
		MeanAnomaly	97.165941246661
	}
	UniformRotation
	{
		Period	6
	}
	Albedo	0.0373
	InfoURL	"http://ssd.jpl.nasa.gov/sbdb.cgi?sstr=961"
}

"Tama System" "Sol"  # Barycenter
{
	Class	"asteroid"
	Mesh	""
	Radius	5
	Visible	true
	Clickable	true
	EllipticalOrbit
	{
		Epoch	2457000.5  # 2014 Dec 09++
		Period	3.293417138307
		SemiMajorAxis	2.213565407571
		Eccentricity	0.127473217059
		Inclination	3.726746353846
		AscendingNode	71.496807383774
		ArgOfPericenter	354.300632459367
		MeanAnomaly	143.620875027993
	}
	Albedo	0
	InfoURL	"http://www.johnstonsarchive.net/astro/astmoons/am-01089.html"
}

"Tama:1089 Tama:1927 WB:1930 ST:1952 HE4:A894 VA:A904 VD:A919 HA" "Sol/Tama System"
{
	Class	"asteroid"
	Mesh	"tama.cmod"
	Orientation	[ 90 0 1 0 ]
	Texture	"gaspra.jpg"
	Radius	5.35
	Visible	true
	Clickable	true
	EllipticalOrbit
	{
		Period	0.6852
		SemiMajorAxis	5
		ArgOfPericenter	200
	}
	UniformRotation
	{
		Period	16.4448
	}
	Albedo	0.216
	InfoURL	"http://ssd.jpl.nasa.gov/sbdb.cgi?sstr=1089"
}

"2003 1089 I" "Sol/Tama System"
{
	Class	"asteroid"
	Mesh	"asteroid.cmod"
	Texture	"gaspra.jpg"
	Radius	3.665
	Visible	true
	Clickable	true
	EllipticalOrbit
	{
		Period	0.6852
		SemiMajorAxis	15.7
		ArgOfPericenter	20
	}
	UniformRotation
	{
		Period	16.4448
	}
	Albedo	0.216
	InfoURL	"http://www.johnstonsarchive.net/astro/astmoons/am-01089.html"
}

"Anchises:1173 Anchises:1930 UB" "Sol"
{
	Class	"asteroid"
	Mesh	"asteroid.cmod"
	Texture	"darkasteroid.jpg"
	Radius	63.135
	Visible	true
	Clickable	true
	EllipticalOrbit
	{
		Epoch	2457000.5  # 2014 Dec 09+
		Period	12.209352677267
		SemiMajorAxis	5.302202267107
		Eccentricity	0.137136477799
		Inclination	6.91533000201
		AscendingNode	283.904693301186
		ArgOfPericenter	41.089809185171
		MeanAnomaly	86.757043268947
	}
	UniformRotation
	{
		Period	11.6
	}
	Albedo	0.0308
	InfoURL	"http://ssd.jpl.nasa.gov/sbdb.cgi?sstr=1173"
}

"Celestia:1252 Celestia:1933 DG:1934 PA1" "Sol"
{
	Class	"asteroid"
	Mesh	"asteroid.cmod"
	Texture	"asteroid.jpg"
	Radius	8.695
	Visible	true
	Clickable	true
	EllipticalOrbit
	{
		Epoch	2457000.5  # 2014 Dec 09+
		Period	4.4246175943383
		SemiMajorAxis	2.695121569548736
		Eccentricity	0.2071987011077538
		Inclination	33.84405530038728
		AscendingNode	140.9352174139787
		ArgOfPericenter	63.64036103939761
		MeanAnomaly	140.4909989674621
	}
	UniformRotation
	{
		Period	10.636
	}
	Albedo	0.2573
	InfoURL	"http://ssd.jpl.nasa.gov/sbdb.cgi?sstr=1252"
}

"Icarus:1566 Icarus:1949 MA" "Sol"
{
	Class	"asteroid"
	Mesh	"asteroid.cmod"
	Texture	"asteroid.jpg"
	Radius	0.5
	Visible	true
	Clickable	true
	EllipticalOrbit
	{
		Epoch	2457000.5  # 2014 Dec 09+
		Period	1.11915916039
		SemiMajorAxis	1.077926381267
		Eccentricity	0.82696079431
		Inclination	22.827863100233
		AscendingNode	88.024449077533
		ArgOfPericenter	31.358231870571
		MeanAnomaly	231.089639388324
	}
	UniformRotation
	{
		Period	2.273
	}
	Albedo	0.51
	InfoURL	"http://ssd.jpl.nasa.gov/sbdb.cgi?sstr=1566"
}

"Geographos:1620 Geographos:1951 RA:1983 CY3" "Sol"
{
	Class	"asteroid"
	Mesh	"geographos.cmod"
	MeshCenter	[ 0.154 -0.002 -0.026 ]
	Texture	"geographos.jpg"
	Radius	2.5
	Visible	true
	Clickable	true
	EllipticalOrbit
	{
		Epoch	2457000.5  # 2014 Dec 09+
		Period	1.3901518471382
		SemiMajorAxis	1.245573498070266
		Eccentricity	0.335430907784686
		Inclination	13.33763553912958
		AscendingNode	337.2193489353145
		ArgOfPericenter	276.8688555134938
		MeanAnomaly	256.826134483741
	}
	UniformRotation
	{
		Period	5.22204
		Inclination	136
		AscendingNode	145
	}
	Albedo	0.3258
	InfoURL	"http://ssd.jpl.nasa.gov/sbdb.cgi?sstr=1620"
}

"Shaposhnikov:1902 Shaposhnikov:1972 HU:1940 GK:1941 MC:1950 TD4:1951 WY1:1951 YD:1958 TP1:1958 VB:1959 XA:1972 JA" "Sol"
{
	Class	"asteroid"
	Mesh	"shaposhnikov.cmod"
	Orientation	[ 90 0 1 0 ]
	Texture	"darkasteroid.jpg"
	Radius	41.722
	Visible	true
	Clickable	true
	EllipticalOrbit
	{
		Epoch	2458000.5  # 2017 Sept 04+
		Period	7.895807110464
		SemiMajorAxis	3.9651432819
		Eccentricity	0.221888715591
		Inclination	12.495448260173
		AscendingNode	59.315313891276
		ArgOfPericenter	268.15571753972
		MeanAnomaly	186.17414682274
	}
	UniformRotation
	{
		Period	21.2
	}
	Albedo	0.04
	InfoURL	"http://ssd.jpl.nasa.gov/sbdb.cgi?sstr=1902"
}

"Chiron:2060 Chiron:1977 UB:95P" "Sol"  # Classified and as a comet
{
	Class	"asteroid"
	# Class	"comet"
	Mesh	"roughsphere.cmod"
	Texture	"comet.jpg"
	Radius	83
	OrbitColor	[ 0.611765 0.317647 0.12549 ]
	Visible	true
	Clickable	true
	EllipticalOrbit
	{
		Epoch	2457000.5  # 2014 Dec 09+
		Period	50.367656524406
		SemiMajorAxis	13.63836664794301
		Eccentricity	0.3820988962489677
		Inclination	6.93836227190589
		AscendingNode	209.2780463186957
		ArgOfPericenter	339.3496505871891
		MeanAnomaly	134.5261255874151
	}
	Rings
	{
		Inner	291
		Outer	313
		Texture	"centaur-rings.png"
	}
	UniformRotation
	{
		Period	5.918 
	}
	Albedo	0.15
	InfoURL	"https://en.wikipedia.org/wiki/2060_Chiron"
}

